start=new Date('2021-12-07T00:00:00.000Z').valueOf();
sats=[{"ARG_OF_PERICENTER":"82.8905","DECAY_DATE":null,"PERIAPSIS":"545.758","CLASSIFICATION_TYPE":"U","TIME_SYSTEM":"UTC","OBJECT_ID":"2021-009Q","SITE":"AFETR","TLE_LINE1":"1 47562U 21009Q   21340.89585862  .00000421  00000-0  47163-4 0  9999","PERIOD":"95.592","RCS_SIZE":"LARGE","GP_ID":"191234171","APOAPSIS":"548.661","RA_OF_ASC_NODE":"156.8758","CENTER_NAME":"EARTH","EPOCH":"2021-12-06T21:30:02.184768","FILE":"3234296","REF_FRAME":"TEME","BSTAR":"0.00004716300000","SEMIMAJOR_AXIS":"6925.345","MEAN_MOTION_DDOT":"0.0000000000000","REV_AT_EPOCH":"4660","MEAN_ANOMALY":"277.2322","ECCENTRICITY":"0.00020960","MEAN_MOTION":"15.06401186","TLE_LINE2":"2 47562  53.0550 156.8758 0002096  82.8905 277.2322 15.06401186 46606","MEAN_ELEMENT_THEORY":"SGP4","EPHEMERIS_TYPE":"0","ELEMENT_SET_NO":"999","LAUNCH_DATE":"2021-02-04","OBJECT_TYPE":"PAYLOAD","COUNTRY_CODE":"US","INCLINATION":"53.0550","NORAD_CAT_ID":"47562","OBJECT_NAME":"STARLINK-1961","MEAN_MOTION_DOT":"0.00000421"},{"CENTER_NAME":"EARTH","EPOCH":"2021-12-06T20:26:21.086880","FILE":"3234296","RA_OF_ASC_NODE":"157.0749","PERIOD":"95.593","GP_ID":"191234922","RCS_SIZE":"LARGE","APOAPSIS":"548.678","SITE":"AFETR","OBJECT_ID":"2021-009R","TLE_LINE1":"1 47563U 21009R   21340.85163295 -.00001771  00000-0 -10003-3 0  9991","CLASSIFICATION_TYPE":"U","TIME_SYSTEM":"UTC","DECAY_DATE":null,"ARG_OF_PERICENTER":"86.1137","PERIAPSIS":"545.796","OBJECT_NAME":"STARLINK-1962","MEAN_MOTION_DOT":"-0.00001771","NORAD_CAT_ID":"47563","LAUNCH_DATE":"2021-02-04","OBJECT_TYPE":"PAYLOAD","INCLINATION":"53.0560","COUNTRY_CODE":"US","EPHEMERIS_TYPE":"0","ELEMENT_SET_NO":"999","MEAN_MOTION":"15.06392396","TLE_LINE2":"2 47563  53.0560 157.0749 0002081  86.1137 274.0090 15.06392396 46596","MEAN_ELEMENT_THEORY":"SGP4","ECCENTRICITY":"0.00020810","REV_AT_EPOCH":"4659","MEAN_MOTION_DDOT":"0.0000000000000","MEAN_ANOMALY":"274.0090","REF_FRAME":"TEME","BSTAR":"-0.00010003000000","SEMIMAJOR_AXIS":"6925.372"},{"SEMIMAJOR_AXIS":"6925.377","REF_FRAME":"TEME","BSTAR":"-0.00005836300000","REV_AT_EPOCH":"4673","MEAN_MOTION_DDOT":"0.0000000000000","MEAN_ANOMALY":"267.6421","ECCENTRICITY":"0.00022630","MEAN_ELEMENT_THEORY":"SGP4","TLE_LINE2":"2 47564  53.0551 147.0665 0002263  92.4827 267.6421 15.06390807 46738","MEAN_MOTION":"15.06390807","EPHEMERIS_TYPE":"0","ELEMENT_SET_NO":"999","OBJECT_TYPE":"PAYLOAD","LAUNCH_DATE":"2021-02-04","INCLINATION":"53.0551","COUNTRY_CODE":"US","NORAD_CAT_ID":"47564","MEAN_MOTION_DOT":"-0.00001151","OBJECT_NAME":"STARLINK-1963","ARG_OF_PERICENTER":"92.4827","DECAY_DATE":null,"PERIAPSIS":"545.675","TIME_SYSTEM":"UTC","CLASSIFICATION_TYPE":"U","TLE_LINE1":"1 47564U 21009S   21340.85255285 -.00001151  00000-0 -58363-4 0  9997","SITE":"AFETR","OBJECT_ID":"2021-009S","PERIOD":"95.593","APOAPSIS":"548.809","GP_ID":"191235173","RCS_SIZE":"LARGE","RA_OF_ASC_NODE":"147.0665","CENTER_NAME":"EARTH","FILE":"3234296","EPOCH":"2021-12-06T20:27:40.566240"},{"NORAD_CAT_ID":"47565","OBJECT_NAME":"STARLINK-1964","MEAN_MOTION_DOT":"-0.00000620","EPHEMERIS_TYPE":"0","ELEMENT_SET_NO":"999","LAUNCH_DATE":"2021-02-04","OBJECT_TYPE":"PAYLOAD","INCLINATION":"53.0547","COUNTRY_CODE":"US","ECCENTRICITY":"0.00020540","MEAN_MOTION":"15.06391042","TLE_LINE2":"2 47565  53.0547 150.0587 0002054  82.7642 277.3580 15.06391042 46631","MEAN_ELEMENT_THEORY":"SGP4","BSTAR":"-0.00002269800000","REF_FRAME":"TEME","SEMIMAJOR_AXIS":"6925.376","REV_AT_EPOCH":"4663","MEAN_MOTION_DDOT":"0.0000000000000","MEAN_ANOMALY":"277.3580","RA_OF_ASC_NODE":"150.0587","CENTER_NAME":"EARTH","EPOCH":"2021-12-06T04:26:58.725024","FILE":"3234035","OBJECT_ID":"2021-009T","SITE":"AFETR","TLE_LINE1":"1 47565U 21009T   21340.18540191 -.00000620  00000-0 -22698-4 0  9999","PERIOD":"95.593","RCS_SIZE":"LARGE","GP_ID":"191206316","APOAPSIS":"548.663","CLASSIFICATION_TYPE":"U","TIME_SYSTEM":"UTC","ARG_OF_PERICENTER":"82.7642","DECAY_DATE":null,"PERIAPSIS":"545.819"},{"EPHEMERIS_TYPE":"0","ELEMENT_SET_NO":"999","OBJECT_TYPE":"PAYLOAD","LAUNCH_DATE":"2021-02-04","COUNTRY_CODE":"US","INCLINATION":"53.0546","NORAD_CAT_ID":"47566","MEAN_MOTION_DOT":"-0.00000439","OBJECT_NAME":"STARLINK-1965","SEMIMAJOR_AXIS":"6925.356","REF_FRAME":"TEME","BSTAR":"-0.00001052400000","REV_AT_EPOCH":"4685","MEAN_MOTION_DDOT":"0.0000000000000","MEAN_ANOMALY":"267.1227","ECCENTRICITY":"0.00021460","MEAN_ELEMENT_THEORY":"SGP4","MEAN_MOTION":"15.06397475","TLE_LINE2":"2 47566  53.0546 137.7005 0002146  93.0007 267.1227 15.06397475 46855","TLE_LINE1":"1 47566U 21009U   21340.70971814 -.00000439  00000-0 -10524-4 0  9991","SITE":"AFETR","OBJECT_ID":"2021-009U","PERIOD":"95.592","APOAPSIS":"548.707","GP_ID":"191234672","RCS_SIZE":"LARGE","RA_OF_ASC_NODE":"137.7005","CENTER_NAME":"EARTH","FILE":"3234296","EPOCH":"2021-12-06T17:01:59.647296","ARG_OF_PERICENTER":"93.0007","DECAY_DATE":null,"PERIAPSIS":"545.735","TIME_SYSTEM":"UTC","CLASSIFICATION_TYPE":"U"},{"ECCENTRICITY":"0.00021520","MEAN_MOTION":"15.06385898","TLE_LINE2":"2 47567  53.0544 177.2467 0002152  80.5075 279.6157 15.06385898 46304","MEAN_ELEMENT_THEORY":"SGP4","BSTAR":"0.00013647000000","REF_FRAME":"TEME","SEMIMAJOR_AXIS":"6925.392","MEAN_MOTION_DDOT":"0.0000000000000","REV_AT_EPOCH":"4630","MEAN_ANOMALY":"279.6157","NORAD_CAT_ID":"47567","OBJECT_NAME":"STARLINK-1966","MEAN_MOTION_DOT":"0.00001751","EPHEMERIS_TYPE":"0","ELEMENT_SET_NO":"999","LAUNCH_DATE":"2021-02-04","OBJECT_TYPE":"PAYLOAD","COUNTRY_CODE":"US","INCLINATION":"53.0544","CLASSIFICATION_TYPE":"U","TIME_SYSTEM":"UTC","ARG_OF_PERICENTER":"80.5075","DECAY_DATE":null,"PERIAPSIS":"545.766","RA_OF_ASC_NODE":"177.2467","CENTER_NAME":"EARTH","EPOCH":"2021-12-06T19:30:38.604384","FILE":"3234296","SITE":"AFETR","OBJECT_ID":"2021-009V","TLE_LINE1":"1 47567U 21009V   21340.81294681  .00001751  00000-0  13647-3 0  9998","PERIOD":"95.593","GP_ID":"191234422","RCS_SIZE":"LARGE","APOAPSIS":"548.747"},{"TLE_LINE1":"1 47568U 21009W   21340.83872989  .00000992  00000-0  85477-4 0  9991","SITE":"AFETR","OBJECT_ID":"2021-009W","PERIOD":"95.592","APOAPSIS":"548.642","GP_ID":"191235674","RCS_SIZE":"LARGE","RA_OF_ASC_NODE":"177.1304","CENTER_NAME":"EARTH","FILE":"3234296","EPOCH":"2021-12-06T20:07:46.262496","ARG_OF_PERICENTER":"84.9597","DECAY_DATE":null,"PERIAPSIS":"545.813","TIME_SYSTEM":"UTC","CLASSIFICATION_TYPE":"U","EPHEMERIS_TYPE":"0","ELEMENT_SET_NO":"999","OBJECT_TYPE":"PAYLOAD","LAUNCH_DATE":"2021-02-04","COUNTRY_CODE":"US","INCLINATION":"53.0534","NORAD_CAT_ID":"47568","MEAN_MOTION_DOT":"0.00000992","OBJECT_NAME":"STARLINK-1967","SEMIMAJOR_AXIS":"6925.363","BSTAR":"0.00008547700000","REF_FRAME":"TEME","REV_AT_EPOCH":"4631","MEAN_MOTION_DDOT":"0.0000000000000","MEAN_ANOMALY":"275.1625","ECCENTRICITY":"0.00020420","MEAN_ELEMENT_THEORY":"SGP4","MEAN_MOTION":"15.06395421","TLE_LINE2":"2 47568  53.0534 177.1304 0002042  84.9597 275.1625 15.06395421 46313"},{"INCLINATION":"53.0513","COUNTRY_CODE":"US","LAUNCH_DATE":"2021-02-04","OBJECT_TYPE":"PAYLOAD","ELEMENT_SET_NO":"999","EPHEMERIS_TYPE":"0","OBJECT_NAME":"STARLINK-1968","MEAN_MOTION_DOT":"-0.00000232","NORAD_CAT_ID":"47569","MEAN_ANOMALY":"319.6995","REV_AT_EPOCH":"4678","MEAN_MOTION_DDOT":"0.0000000000000","BSTAR":"0.00000414140000","REF_FRAME":"TEME","SEMIMAJOR_AXIS":"6817.839","MEAN_MOTION":"15.42171331","TLE_LINE2":"2 47569  53.0513 144.3523 0002084  40.4164 319.6995 15.42171331 46780","MEAN_ELEMENT_THEORY":"SGP4","ECCENTRICITY":"0.00020840","RCS_SIZE":"LARGE","GP_ID":"191235424","APOAPSIS":"441.125","PERIOD":"93.375","OBJECT_ID":"2021-009X","SITE":"AFETR","TLE_LINE1":"1 47569U 21009X   21340.88127617 -.00000232  00000-0  41414-5 0  9990","EPOCH":"2021-12-06T21:09:02.261088","FILE":"3234296","CENTER_NAME":"EARTH","RA_OF_ASC_NODE":"144.3523","PERIAPSIS":"438.283","DECAY_DATE":null,"ARG_OF_PERICENTER":"40.4164","CLASSIFICATION_TYPE":"U","TIME_SYSTEM":"UTC"},{"OBJECT_NAME":"STARLINK-1969","MEAN_MOTION_DOT":"0.00000709","NORAD_CAT_ID":"47570","LAUNCH_DATE":"2021-02-04","OBJECT_TYPE":"PAYLOAD","INCLINATION":"53.0532","COUNTRY_CODE":"US","EPHEMERIS_TYPE":"0","ELEMENT_SET_NO":"999","TLE_LINE2":"2 47570  53.0532 137.7583 0002028  94.3631 265.7589 15.06396959 46853","MEAN_MOTION":"15.06396959","MEAN_ELEMENT_THEORY":"SGP4","ECCENTRICITY":"0.00020280","REV_AT_EPOCH":"4685","MEAN_MOTION_DDOT":"0.0000000000000","MEAN_ANOMALY":"265.7589","BSTAR":"0.00006653500000","REF_FRAME":"TEME","SEMIMAJOR_AXIS":"6925.358","CENTER_NAME":"EARTH","EPOCH":"2021-12-06T16:46:04.534176","FILE":"3234296","RA_OF_ASC_NODE":"137.7583","PERIOD":"95.592","GP_ID":"191234172","RCS_SIZE":"LARGE","APOAPSIS":"548.627","OBJECT_ID":"2021-009Y","SITE":"AFETR","TLE_LINE1":"1 47570U 21009Y   21340.69866359  .00000709  00000-0  66535-4 0  9992","CLASSIFICATION_TYPE":"U","TIME_SYSTEM":"UTC","ARG_OF_PERICENTER":"94.3631","DECAY_DATE":null,"PERIAPSIS":"545.818"},{"COUNTRY_CODE":"US","INCLINATION":"53.0555","LAUNCH_DATE":"2021-02-04","OBJECT_TYPE":"PAYLOAD","ELEMENT_SET_NO":"999","EPHEMERIS_TYPE":"0","OBJECT_NAME":"STARLINK-1970","MEAN_MOTION_DOT":"0.00000783","NORAD_CAT_ID":"47571","MEAN_ANOMALY":"272.9591","REV_AT_EPOCH":"4672","MEAN_MOTION_DDOT":"0.0000000000000","REF_FRAME":"TEME","BSTAR":"0.00007148400000","SEMIMAJOR_AXIS":"6925.370","MEAN_MOTION":"15.06392925","TLE_LINE2":"2 47571  53.0555 147.4178 0002080  87.1636 272.9591 15.06392925 46728","MEAN_ELEMENT_THEORY":"SGP4","ECCENTRICITY":"0.00020800","GP_ID":"191234923","RCS_SIZE":"LARGE","APOAPSIS":"548.676","PERIOD":"95.593","SITE":"AFETR","OBJECT_ID":"2021-009Z","TLE_LINE1":"1 47571U 21009Z   21340.77515455  .00000783  00000-0  71484-4 0  9991","EPOCH":"2021-12-06T18:36:13.353120","FILE":"3234296","CENTER_NAME":"EARTH","RA_OF_ASC_NODE":"147.4178","PERIAPSIS":"545.795","DECAY_DATE":null,"ARG_OF_PERICENTER":"87.1636","CLASSIFICATION_TYPE":"U","TIME_SYSTEM":"UTC"}];
